[
    {
        "Altitude(m)": 622205.8918957418,
        "Argument of Periapsis(deg)": 0.0,
        "Eccentricity": 0.0,
        "Inclination(deg)": 60.0,
        "Latitude(deg)": -52.16250277279215,
        "Longitude(deg)": -132.29969107408886,
        "Mean Anomaly(deg)": 245.4545,
        "RAAN(deg)": 100.0,
        "Satellite Name": "Test1 455",
        "Satellite Number": 455,
        "Semi-Major Axis(m)": 6980739.136638005,
        "Time(s)": 0
    },
    {
        "Altitude(m)": 622344.798684241,
        "Argument of Periapsis(deg)": 0.00010418945913296404,
        "Eccentricity": 0.0,
        "Inclination(deg)": 60.0,
        "Latitude(deg)": -52.52008326583984,
        "Longitude(deg)": -131.51847861903067,
        "Mean Anomaly(deg)": 246.07460614546184,
        "RAAN(deg)": 99.99957995086025,
        "Satellite Name": "Test1 455",
        "Satellite Number": 455,
        "Semi-Major Axis(m)": 6980739.136638005,
        "Time(s)": 10
    },
    {
        "Altitude(m)": 622480.8618169135,
        "Argument of Periapsis(deg)": 0.0002083789182659281,
        "Eccentricity": 0.0,
        "Inclination(deg)": 60.0,
        "Latitude(deg)": -52.87182715087401,
        "Longitude(deg)": -130.72393394664743,
        "Mean Anomaly(deg)": 246.69471229092363,
        "RAAN(deg)": 99.99915990172052,
        "Satellite Name": "Test1 455",
        "Satellite Number": 455,
        "Semi-Major Axis(m)": 6980739.136638005,
        "Time(s)": 20
    },
    {
        "Altitude(m)": 622614.0280623218,
        "Argument of Periapsis(deg)": 0.00031256837739889213,
        "Eccentricity": 0.0,
        "Inclination(deg)": 60.0,
        "Latitude(deg)": -53.217566566052895,
        "Longitude(deg)": -129.91589608551888,
        "Mean Anomaly(deg)": 247.31481843638548,
        "RAAN(deg)": 99.99873985258077,
        "Satellite Name": "Test1 455",
        "Satellite Number": 455,
        "Semi-Major Axis(m)": 6980739.136638005,
        "Time(s)": 30
    },
    {
        "Altitude(m)": 622744.2452992543,
        "Argument of Periapsis(deg)": 0.0004167578365318562,
        "Eccentricity": 0.0,
        "Inclination(deg)": 60.0,
        "Latitude(deg)": -53.55713024258586,
        "Longitude(deg)": -129.09421568745245,
        "Mean Anomaly(deg)": 247.9349245818473,
        "RAAN(deg)": 99.99831980344103,
        "Satellite Name": "Test1 455",
        "Satellite Number": 455,
        "Semi-Major Axis(m)": 6980739.136638005,
        "Time(s)": 40
    },
    {
        "Altitude(m)": 622871.4625389767,
        "Argument of Periapsis(deg)": 0.0005209472956648203,
        "Eccentricity": 0.0,
        "Inclination(deg)": 60.0,
        "Latitude(deg)": -53.89034362749105,
        "Longitude(deg)": -128.25875742400362,
        "Mean Anomaly(deg)": 248.55503072730914,
        "RAAN(deg)": 99.99789975430129,
        "Satellite Name": "Test1 455",
        "Satellite Number": 455,
        "Semi-Major Axis(m)": 6980739.136638005,
        "Time(s)": 50
    },
    {
        "Altitude(m)": 622995.6299469777,
        "Argument of Periapsis(deg)": 0.0006251367547977843,
        "Eccentricity": 0.0,
        "Inclination(deg)": 60.0,
        "Latitude(deg)": -54.21702903034047,
        "Longitude(deg)": -127.4094009337301,
        "Mean Anomaly(deg)": 249.17513687277093,
        "RAAN(deg)": 99.99747970516155,
        "Satellite Name": "Test1 455",
        "Satellite Number": 455,
        "Semi-Major Axis(m)": 6980739.136638005,
        "Time(s)": 60
    },
    {
        "Altitude(m)": 623116.6988642047,
        "Argument of Periapsis(deg)": 0.0007293262139307483,
        "Eccentricity": 0.0,
        "Inclination(deg)": 60.0,
        "Latitude(deg)": -54.53700579560735,
        "Longitude(deg)": -126.5460418286897,
        "Mean Anomaly(deg)": 249.79524301823278,
        "RAAN(deg)": 99.9970596560218,
        "Satellite Name": "Test1 455",
        "Satellite Number": 455,
        "Semi-Major Axis(m)": 6980739.136638005,
        "Time(s)": 70
    },
    {
        "Altitude(m)": 623234.6218277719,
        "Argument of Periapsis(deg)": 0.0008335156730637124,
        "Eccentricity": 0.0,
        "Inclination(deg)": 60.0,
        "Latitude(deg)": -54.850090502185644,
        "Longitude(deg)": -125.66859426741729,
        "Mean Anomaly(deg)": 250.4153491636946,
        "RAAN(deg)": 99.99663960688206,
        "Satellite Name": "Test1 455",
        "Satellite Number": 455,
        "Semi-Major Axis(m)": 6980739.136638005,
        "Time(s)": 80
    },
    {
        "Altitude(m)": 623349.3525911907,
        "Argument of Periapsis(deg)": 0.0009377051321966765,
        "Eccentricity": 0.0,
        "Inclination(deg)": 60.0,
        "Latitude(deg)": -55.15609719159293,
        "Longitude(deg)": -124.77699206157533,
        "Mean Anomaly(deg)": 251.03545530915648,
        "RAAN(deg)": 99.99621955774232,
        "Satellite Name": "Test1 455",
        "Satellite Number": 455,
        "Semi-Major Axis(m)": 6980739.136638005,
        "Time(s)": 90
    },
    {
        "Altitude(m)": 623460.846143996,
        "Argument of Periapsis(deg)": 0.0010418945913296407,
        "Eccentricity": 0.0,
        "Inclination(deg)": 60.0,
        "Latitude(deg)": -55.45483762626071,
        "Longitude(deg)": -123.87118982059825,
        "Mean Anomaly(deg)": 251.65556145461835,
        "RAAN(deg)": 99.99579950860257,
        "Satellite Name": "Test1 455",
        "Satellite Number": 455,
        "Semi-Major Axis(m)": 6980739.136638005,
        "Time(s)": 100
    },
    {
        "Altitude(m)": 623569.0587309246,
        "Argument of Periapsis(deg)": 0.0011460840504626045,
        "Eccentricity": 0.0,
        "Inclination(deg)": 60.0,
        "Latitude(deg)": -55.746121579184205,
        "Longitude(deg)": -122.95116563705427,
        "Mean Anomaly(deg)": 252.2756676000801,
        "RAAN(deg)": 99.99537945946282,
        "Satellite Name": "Test1 455",
        "Satellite Number": 455,
        "Semi-Major Axis(m)": 6980739.136638005,
        "Time(s)": 110
    },
    {
        "Altitude(m)": 623673.947870451,
        "Argument of Periapsis(deg)": 0.0012502735095955685,
        "Eccentricity": 0.0,
        "Inclination(deg)": 60.0,
        "Latitude(deg)": -56.029757156040695,
        "Longitude(deg)": -122.01692227513797,
        "Mean Anomaly(deg)": 252.89577374554196,
        "RAAN(deg)": 99.99495941032309,
        "Satellite Name": "Test1 455",
        "Satellite Number": 455,
        "Semi-Major Axis(m)": 6980739.136638005,
        "Time(s)": 120
    },
    {
        "Altitude(m)": 623775.4723728666,
        "Argument of Periapsis(deg)": 0.0013544629687285324,
        "Eccentricity": 0.0,
        "Inclination(deg)": 60.0,
        "Latitude(deg)": -56.30555115066974,
        "Longitude(deg)": -121.06848836161589,
        "Mean Anomaly(deg)": 253.51587989100378,
        "RAAN(deg)": 99.99453936118334,
        "Satellite Name": "Test1 455",
        "Satellite Number": 455,
        "Semi-Major Axis(m)": 6980739.136638005,
        "Time(s)": 130
    },
    {
        "Altitude(m)": 623873.592357725,
        "Argument of Periapsis(deg)": 0.0014586524278614966,
        "Eccentricity": 0.0,
        "Inclination(deg)": 60.0,
        "Latitude(deg)": -56.573309434558745,
        "Longitude(deg)": -120.10592107679662,
        "Mean Anomaly(deg)": 254.13598603646557,
        "RAAN(deg)": 99.99411931204361,
        "Satellite Name": "Test1 455",
        "Satellite Number": 455,
        "Semi-Major Axis(m)": 6980739.136638005,
        "Time(s)": 140
    },
    {
        "Altitude(m)": 623968.2692707726,
        "Argument of Periapsis(deg)": 0.0015628418869944607,
        "Eccentricity": 0.0,
        "Inclination(deg)": 60.0,
        "Latitude(deg)": -56.83283738068819,
        "Longitude(deg)": -119.1293073027362,
        "Mean Anomaly(deg)": 254.75609218192741,
        "RAAN(deg)": 99.99369926290386,
        "Satellite Name": "Test1 455",
        "Satellite Number": 455,
        "Semi-Major Axis(m)": 6980739.136638005,
        "Time(s)": 150
    },
    {
        "Altitude(m)": 624059.4659002789,
        "Argument of Periapsis(deg)": 0.0016670313461274247,
        "Eccentricity": 0.0,
        "Inclination(deg)": 60.0,
        "Latitude(deg)": -57.08394032174693,
        "Longitude(deg)": -118.13876472283745,
        "Mean Anomaly(deg)": 255.37619832738926,
        "RAAN(deg)": 99.99327921376411,
        "Satellite Name": "Test1 455",
        "Satellite Number": 455,
        "Semi-Major Axis(m)": 6980739.136638005,
        "Time(s)": 160
    },
    {
        "Altitude(m)": 624147.1463927914,
        "Argument of Periapsis(deg)": 0.0017712208052603888,
        "Eccentricity": 0.0,
        "Inclination(deg)": 60.0,
        "Latitude(deg)": -57.32642404234622,
        "Longitude(deg)": -117.13444436543072,
        "Mean Anomaly(deg)": 255.99630447285108,
        "RAAN(deg)": 99.99285916462438,
        "Satellite Name": "Test1 455",
        "Satellite Number": 455,
        "Semi-Major Axis(m)": 6980739.136638005,
        "Time(s)": 170
    },
    {
        "Altitude(m)": 624231.2762683276,
        "Argument of Periapsis(deg)": 0.001875410264393353,
        "Eccentricity": 0.0,
        "Inclination(deg)": 60.0,
        "Latitude(deg)": -57.560095304440395,
        "Longitude(deg)": -116.11653154386921,
        "Mean Anomaly(deg)": 256.616410618313,
        "RAAN(deg)": 99.99243911548463,
        "Satellite Name": "Test1 455",
        "Satellite Number": 455,
        "Semi-Major Axis(m)": 6980739.136638005,
        "Time(s)": 180
    },
    {
        "Altitude(m)": 624311.8224349597,
        "Argument of Periapsis(deg)": 0.0019795997235263173,
        "Eccentricity": 0.0,
        "Inclination(deg)": 60.0,
        "Latitude(deg)": -57.7847624046929,
        "Longitude(deg)": -115.08524668309747,
        "Mean Anomaly(deg)": 257.2365167637747,
        "RAAN(deg)": 99.9920190663449,
        "Satellite Name": "Test1 455",
        "Satellite Number": 455,
        "Semi-Major Axis(m)": 6980739.136638005,
        "Time(s)": 190
    }
]